SUOMI NPP               
1 37849U 11061A   23004.09530079  .00000080  00000-0  59002-4 0  9990
2 37849  98.7539 305.0332 0001376  84.5046  45.2890 14.19531359579655